{"fetched_at":"2026-07-13T07:47:54.571Z","source":"https://celestrak.org/NORAD/elements/gp.php?GROUP=oneweb&FORMAT=JSON","constellation":"oneweb","records":[{"OBJECT_NAME":"ONEWEB-0683","OBJECT_ID":"2023-068K","EPOCH":"2026-07-12T16:28:53.848704","CLASSIFICATION_TYPE":"U","MEAN_MOTION":13.15548327,"ECCENTRICITY":0.000218,"INCLINATION":87.901,"RA_OF_ASC_NODE":254.113,"ARG_OF_PERICENTER":94.6429,"MEAN_ANOMALY":265.4951,"EPHEMERIS_TYPE":0,"NORAD_CAT_ID":56719,"ELEMENT_SET_NO":999,"REV_AT_EPOCH":15277,"BSTAR":0.00036163,"MEAN_MOTION_DOT":0.00000149,"MEAN_MOTION_DDOT":0},{"OBJECT_NAME":"ONEWEB-0684","OBJECT_ID":"2023-068L","EPOCH":"2026-07-12T16:40:18.256800","CLASSIFICATION_TYPE":"U","MEAN_MOTION":13.15549747,"ECCENTRICITY":0.0002931,"INCLINATION":87.8992,"RA_OF_ASC_NODE":254.1029,"ARG_OF_PERICENTER":127.2347,"MEAN_ANOMALY":232.9051,"EPHEMERIS_TYPE":0,"NORAD_CAT_ID":56720,"ELEMENT_SET_NO":999,"REV_AT_EPOCH":15260,"BSTAR":-0.000049182,"MEAN_MOTION_DOT":-6e-8,"MEAN_MOTION_DDOT":0},{"OBJECT_NAME":"ONEWEB-0686","OBJECT_ID":"2023-068M","EPOCH":"2026-07-12T15:54:50.358240","CLASSIFICATION_TYPE":"U","MEAN_MOTION":13.16593292,"ECCENTRICITY":0.0002417,"INCLINATION":87.9066,"RA_OF_ASC_NODE":223.7314,"ARG_OF_PERICENTER":94.4602,"MEAN_ANOMALY":265.6805,"EPHEMERIS_TYPE":0,"NORAD_CAT_ID":56721,"ELEMENT_SET_NO":999,"REV_AT_EPOCH":15506,"BSTAR":-0.00020681,"MEAN_MOTION_DOT":-6.6e-7,"MEAN_MOTION_DDOT":0},{"OBJECT_NAME":"ONEWEB-0694","OBJECT_ID":"2023-068N","EPOCH":"2026-07-12T14:14:31.272864","CLASSIFICATION_TYPE":"U","MEAN_MOTION":13.16593326,"ECCENTRICITY":0.0002298,"INCLINATION":87.9088,"RA_OF_ASC_NODE":223.7147,"ARG_OF_PERICENTER":84.7662,"MEAN_ANOMALY":275.3731,"EPHEMERIS_TYPE":0,"NORAD_CAT_ID":56722,"ELEMENT_SET_NO":999,"REV_AT_EPOCH":15511,"BSTAR":-0.000033212,"MEAN_MOTION_DOT":0,"MEAN_MOTION_DDOT":0},{"OBJECT_NAME":"ONEWEB-0696","OBJECT_ID":"2023-068P","EPOCH":"2026-07-12T17:28:12.908352","CLASSIFICATION_TYPE":"U","MEAN_MOTION":13.15549745,"ECCENTRICITY":0.0002008,"INCLINATION":87.8985,"RA_OF_ASC_NODE":254.1335,"ARG_OF_PERICENTER":108.226,"MEAN_ANOMALY":251.9089,"EPHEMERIS_TYPE":0,"NORAD_CAT_ID":56723,"ELEMENT_SET_NO":999,"REV_AT_EPOCH":15272,"BSTAR":-0.00017376,"MEAN_MOTION_DOT":-5.3e-7,"MEAN_MOTION_DDOT":0},{"OBJECT_NAME":"ONEWEB-0703","OBJECT_ID":"2023-068Q","EPOCH":"2026-07-12T15:52:22.907136","CLASSIFICATION_TYPE":"U","MEAN_MOTION":13.15548101,"ECCENTRICITY":0.0001641,"INCLINATION":87.8986,"RA_OF_ASC_NODE":254.1272,"ARG_OF_PERICENTER":123.0948,"MEAN_ANOMALY":237.034,"EPHEMERIS_TYPE":0,"NORAD_CAT_ID":56724,"ELEMENT_SET_NO":999,"REV_AT_EPOCH":15260,"BSTAR":-0.00015879,"MEAN_MOTION_DOT":-4.7e-7,"MEAN_MOTION_DDOT":0},{"OBJECT_NAME":"ONEWEB-0721","OBJECT_ID":"2023-068R","EPOCH":"2026-07-12T17:06:15.012000","CLASSIFICATION_TYPE":"U","MEAN_MOTION":13.22470848,"ECCENTRICITY":0.0001796,"INCLINATION":86.6749,"RA_OF_ASC_NODE":77.3675,"ARG_OF_PERICENTER":78.98,"MEAN_ANOMALY":281.1535,"EPHEMERIS_TYPE":0,"NORAD_CAT_ID":56725,"ELEMENT_SET_NO":999,"REV_AT_EPOCH":16131,"BSTAR":0.000080124,"MEAN_MOTION_DOT":4.8e-7,"MEAN_MOTION_DDOT":0},{"OBJECT_NAME":"ONEWEB-0015","OBJECT_ID":"2024-188A","EPOCH":"2026-07-12T13:31:43.807008","CLASSIFICATION_TYPE":"U","MEAN_MOTION":13.11418038,"ECCENTRICITY":0.0001565,"INCLINATION":87.888,"RA_OF_ASC_NODE":16.0389,"ARG_OF_PERICENTER":73.195,"MEAN_ANOMALY":286.9349,"EPHEMERIS_TYPE":0,"NORAD_CAT_ID":61594,"ELEMENT_SET_NO":999,"REV_AT_EPOCH":8778,"BSTAR":0.0010394,"MEAN_MOTION_DOT":0.00000381,"MEAN_MOTION_DDOT":0},{"OBJECT_NAME":"ONEWEB-0687","OBJECT_ID":"2024-188B","EPOCH":"2026-07-12T12:25:14.142720","CLASSIFICATION_TYPE":"U","MEAN_MOTION":13.17647529,"ECCENTRICITY":0.0001924,"INCLINATION":87.9131,"RA_OF_ASC_NODE":0.8351,"ARG_OF_PERICENTER":86.5695,"MEAN_ANOMALY":273.5657,"EPHEMERIS_TYPE":0,"NORAD_CAT_ID":61595,"ELEMENT_SET_NO":999,"REV_AT_EPOCH":8923,"BSTAR":-0.00021383187,"MEAN_MOTION_DOT":-7e-7,"MEAN_MOTION_DDOT":0},{"OBJECT_NAME":"ONEWEB-0688","OBJECT_ID":"2024-188C","EPOCH":"2026-07-12T11:17:10.752576","CLASSIFICATION_TYPE":"U","MEAN_MOTION":13.17650597,"ECCENTRICITY":0.00012989,"INCLINATION":87.9136,"RA_OF_ASC_NODE":0.8455,"ARG_OF_PERICENTER":55.2775,"MEAN_ANOMALY":304.8478,"EPHEMERIS_TYPE":0,"NORAD_CAT_ID":61596,"ELEMENT_SET_NO":999,"REV_AT_EPOCH":8922,"BSTAR":0.00030043076,"MEAN_MOTION_DOT":0.0000013,"MEAN_MOTION_DDOT":0},{"OBJECT_NAME":"ONEWEB-0689","OBJECT_ID":"2024-188D","EPOCH":"2026-07-12T12:30:40.541184","CLASSIFICATION_TYPE":"U","MEAN_MOTION":13.11415204,"ECCENTRICITY":0.00021005,"INCLINATION":87.8889,"RA_OF_ASC_NODE":16.0087,"ARG_OF_PERICENTER":85.5508,"MEAN_ANOMALY":274.5859,"EPHEMERIS_TYPE":0,"NORAD_CAT_ID":61597,"ELEMENT_SET_NO":999,"REV_AT_EPOCH":8777,"BSTAR":-0.00059351899,"MEAN_MOTION_DOT":-0.00000198,"MEAN_MOTION_DDOT":0},{"OBJECT_NAME":"ONEWEB-0690","OBJECT_ID":"2024-188E","EPOCH":"2026-07-12T12:45:19.674144","CLASSIFICATION_TYPE":"U","MEAN_MOTION":13.1141593,"ECCENTRICITY":0.0001599,"INCLINATION":87.8888,"RA_OF_ASC_NODE":16.0173,"ARG_OF_PERICENTER":110.5191,"MEAN_ANOMALY":249.6109,"EPHEMERIS_TYPE":0,"NORAD_CAT_ID":61598,"ELEMENT_SET_NO":999,"REV_AT_EPOCH":8795,"BSTAR":-0.0013889142,"MEAN_MOTION_DOT":-0.0000048,"MEAN_MOTION_DDOT":0},{"OBJECT_NAME":"ONEWEB-0691","OBJECT_ID":"2024-188F","EPOCH":"2026-07-12T12:38:00.284352","CLASSIFICATION_TYPE":"U","MEAN_MOTION":13.11414938,"ECCENTRICITY":0.00019487,"INCLINATION":87.8881,"RA_OF_ASC_NODE":15.9272,"ARG_OF_PERICENTER":84.92,"MEAN_ANOMALY":275.2151,"EPHEMERIS_TYPE":0,"NORAD_CAT_ID":61599,"ELEMENT_SET_NO":999,"REV_AT_EPOCH":8780,"BSTAR":-0.0011310907,"MEAN_MOTION_DOT":-0.00000388,"MEAN_MOTION_DDOT":0},{"OBJECT_NAME":"ONEWEB-0692","OBJECT_ID":"2024-188G","EPOCH":"2026-07-12T13:07:17.913504","CLASSIFICATION_TYPE":"U","MEAN_MOTION":13.11419472,"ECCENTRICITY":0.00025609,"INCLINATION":87.8881,"RA_OF_ASC_NODE":16.034,"ARG_OF_PERICENTER":97.35,"MEAN_ANOMALY":262.7919,"EPHEMERIS_TYPE":0,"NORAD_CAT_ID":61600,"ELEMENT_SET_NO":999,"REV_AT_EPOCH":8779,"BSTAR":-0.00090865327,"MEAN_MOTION_DOT":-0.00000309,"MEAN_MOTION_DDOT":0},{"OBJECT_NAME":"ONEWEB-0693","OBJECT_ID":"2024-188H","EPOCH":"2026-07-12T11:34:12.433440","CLASSIFICATION_TYPE":"U","MEAN_MOTION":13.17650417,"ECCENTRICITY":0.00013171,"INCLINATION":87.9131,"RA_OF_ASC_NODE":0.8615,"ARG_OF_PERICENTER":113.0364,"MEAN_ANOMALY":247.0907,"EPHEMERIS_TYPE":0,"NORAD_CAT_ID":61601,"ELEMENT_SET_NO":999,"REV_AT_EPOCH":8921,"BSTAR":0.00010793653,"MEAN_MOTION_DOT":5.5e-7,"MEAN_MOTION_DDOT":0},{"OBJECT_NAME":"ONEWEB-0695","OBJECT_ID":"2024-188J","EPOCH":"2026-07-12T12:33:07.479072","CLASSIFICATION_TYPE":"U","MEAN_MOTION":13.11415024,"ECCENTRICITY":0.00024719,"INCLINATION":87.8879,"RA_OF_ASC_NODE":16.0305,"ARG_OF_PERICENTER":91.6444,"MEAN_ANOMALY":268.4967,"EPHEMERIS_TYPE":0,"NORAD_CAT_ID":61602,"ELEMENT_SET_NO":999,"REV_AT_EPOCH":8778,"BSTAR":-0.00069130294,"MEAN_MOTION_DOT":-0.00000232,"MEAN_MOTION_DDOT":0}]}
