ONEWEB-0683             
1 56719U 23068K   26193.68673436  .00000149  00000+0  36163-3 0  9996
2 56719  87.9010 254.1130 0002180  94.6429 265.4951 13.15548327152779
ONEWEB-0684             
1 56720U 23068L   26193.69465575 -.00000006  00000+0 -49182-4 0  9992
2 56720  87.8992 254.1029 0002931 127.2347 232.9051 13.15549747152601
ONEWEB-0686             
1 56721U 23068M   26193.66308285 -.00000066  00000+0 -20681-3 0  9992
2 56721  87.9066 223.7314 0002417  94.4602 265.6805 13.16593292155060
ONEWEB-0694             
1 56722U 23068N   26193.59341751  .00000000  00000+0 -33212-4 0  9992
2 56722  87.9088 223.7147 0002298  84.7662 275.3731 13.16593326155114
ONEWEB-0696             
1 56723U 23068P   26193.72792718 -.00000053  00000+0 -17376-3 0  9992
2 56723  87.8985 254.1335 0002008 108.2260 251.9089 13.15549745152727
ONEWEB-0703             
1 56724U 23068Q   26193.66137624 -.00000047  00000+0 -15879-3 0  9994
2 56724  87.8986 254.1272 0001641 123.0948 237.0340 13.15548101152606
ONEWEB-0721             
1 56725U 23068R   26193.71267375  .00000048  00000+0  80124-4 0  9993
2 56725  86.6749  77.3675 0001796  78.9800 281.1535 13.22470848161313
ONEWEB-0015             
1 61594U 24188A   26193.56370147  .00000381  00000+0  10394-2 0  9992
2 61594  87.8880  16.0389 0001565  73.1950 286.9349 13.11418038 87786
ONEWEB-0687             
1 61595U 24188B   26193.51752480 -.00000070  00000+0 -21383-3 0  9990
2 61595  87.9131   0.8351 0001924  86.5695 273.5657 13.17647529 89231
ONEWEB-0688             
1 61596U 24188C   26193.47026334  .00000130  00000+0  30043-3 0  9996
2 61596  87.9136   0.8455 0001298  55.2775 304.8478 13.17650597 89225
ONEWEB-0689             
1 61597U 24188D   26193.52130256 -.00000198  00000+0 -59352-3 0  9992
2 61597  87.8889  16.0087 0002100  85.5508 274.5859 13.11415204 87775
ONEWEB-0690             
1 61598U 24188E   26193.53147771 -.00000480  00000+0 -13889-2 0  9992
2 61598  87.8888  16.0173 0001599 110.5191 249.6109 13.11415930 87956
ONEWEB-0691             
1 61599U 24188F   26193.52639218 -.00000388  00000+0 -11311-2 0  9999
2 61599  87.8881  15.9272 0001948  84.9200 275.2151 13.11414938 87804
ONEWEB-0692             
1 61600U 24188G   26193.54673511 -.00000309  00000+0 -90865-3 0  9993
2 61600  87.8881  16.0340 0002560  97.3500 262.7919 13.11419472 87796
ONEWEB-0693             
1 61601U 24188H   26193.48208835  .00000055  00000+0  10794-3 0  9999
2 61601  87.9131   0.8615 0001317 113.0364 247.0907 13.17650417 89219
ONEWEB-0695             
1 61602U 24188J   26193.52300323 -.00000232  00000+0 -69130-3 0  9997
2 61602  87.8879  16.0305 0002471  91.6444 268.4967 13.11415024 87785
